OBJECT_NAME,OBJECT_ID,EPOCH,MEAN_MOTION,ECCENTRICITY,INCLINATION,RA_OF_ASC_NODE,ARG_OF_PERICENTER,MEAN_ANOMALY,EPHEMERIS_TYPE,CLASSIFICATION_TYPE,NORAD_CAT_ID,ELEMENT_SET_NO,REV_AT_EPOCH,BSTAR,MEAN_MOTION_DOT,MEAN_MOTION_DDOT
ONEWEB-0642,2023-029L,2026-06-17T02:21:29.647584,13.19723415,.0001594,87.9170,304.9946,125.6288,234.4993,0,U,55806,999,15889,-.25413E-3,-.89E-6,0
ONEWEB-0643,2023-029M,2026-06-17T01:37:54.183936,13.14503257,.0001905,87.8954,289.7535,121.7400,238.3915,0,U,55807,999,15937,-.23527E-3,-.74E-6,0
ONEWEB-0644,2023-029N,2026-06-16T22:36:18.472608,13.19724428,.0001726,87.9167,305.0271,109.4052,250.7267,0,U,55808,999,15887,.14112E-3,.69E-6,0
ONEWEB-0645,2023-029P,2026-06-17T02:46:30.052704,13.19724132,.0001412,87.9167,304.9894,101.1426,258.9865,0,U,55809,999,15889,.10922E-3,.57E-6,0
ONEWEB-0646,2023-029Q,2026-06-17T03:11:32.102880,13.19725005,.0001757,87.9168,304.9862,108.2274,251.9050,0,U,55810,999,15888,-.6615E-4,-.14E-6,0
ONEWEB-0648,2023-029R,2026-06-16T21:12:59.410080,13.14500761,.00011,87.8968,289.7638,120.1707,239.9532,0,U,55811,999,15935,-.607E-4,-.1E-6,0
ONEWEB-0649,2023-029S,2026-06-16T22:20:23.102880,13.19724825,.0001611,87.9168,305.0240,101.9047,258.2267,0,U,55812,999,15889,-.18256E-3,-.6E-6,0
ONEWEB-0650,2023-029T,2026-06-17T01:51:53.800128,13.19725469,.000155,87.9168,304.9970,114.3988,245.7307,0,U,55813,999,15888,.27563E-3,.123E-5,0
ONEWEB-0652,2023-029U,2026-06-16T20:45:34.758432,13.14504768,.0002034,87.8962,289.7749,98.8060,261.3301,0,U,55814,999,15932,.59984E-3,.235E-5,0
ONEWEB-0653,2023-029V,2026-06-17T01:51:35.251776,13.14503207,.000189,87.8962,289.7304,97.9849,262.1495,0,U,55815,999,15938,.13728E-3,.64E-6,0
ONEWEB-0654,2023-029W,2026-06-17T01:44:44.176128,13.14503914,.0002127,87.8963,289.7277,92.2858,267.8515,0,U,55816,999,15940,-.24522E-3,-.78E-6,0
ONEWEB-0656,2023-029X,2026-06-17T01:16:09.880032,13.20773429,.0002291,87.9198,274.4564,92.2233,267.9163,0,U,55817,999,16113,.12021E-3,.62E-6,0
ONEWEB-0657,2023-029Y,2026-06-17T01:45:06.172704,13.19724857,.0002544,87.9169,304.9969,102.3733,257.7684,0,U,55818,999,15889,.12747E-4,.18E-6,0
ONEWEB-0658,2023-029Z,2026-06-16T21:59:55.459104,13.19724605,.0001689,87.9179,305.0036,111.0158,249.1156,0,U,55819,999,15888,-.93139E-4,-.24E-6,0
ONEWEB-0660,2023-029AA,2026-06-17T01:12:46.103040,13.14503270,.0001565,87.8974,289.7250,98.0219,262.1088,0,U,55820,999,15938,-.44529E-3,-.152E-5,0
ONEWEB-0661,2023-029AB,2026-06-16T20:34:11.707680,13.14503061,.0001637,87.8955,289.8085,94.4726,265.6591,0,U,55821,999,15934,.39144E-3,.158E-5,0
ONEWEB-0662,2023-029AC,2026-06-16T21:24:25.540992,13.14502143,.0001583,87.8954,289.8076,98.8386,261.2923,0,U,55822,999,15939,-.36353E-3,-.122E-5,0
ONEWEB-0663,2023-029AD,2026-06-17T03:53:47.318208,13.20869409,.0001558,87.9200,274.5061,107.6478,252.4826,0,U,55823,999,16114,.31907E-3,.143E-5,0
ONEWEB-0664,2023-029AE,2026-06-16T17:40:24.864096,13.20770618,.0001776,87.9184,274.5723,86.6834,273.4502,0,U,55824,999,16108,-.18967E-3,-.64E-6,0
ONEWEB-0665,2023-029AF,2026-06-16T20:29:37.614048,13.14503378,.0001541,87.8954,289.7900,102.3412,257.7890,0,U,55825,999,15936,.31907E-3,.131E-5,0
ONEWEB-0666,2023-029AG,2026-06-16T17:30:43.113024,13.20771003,.0002673,87.9183,274.5635,104.9495,255.1935,0,U,55826,999,16109,.53085E-4,.35E-6,0
ONEWEB-0667,2023-029AH,2026-06-16T17:23:27.199104,13.20771625,.0001809,87.9200,274.5225,98.2628,261.8711,0,U,55827,999,16108,.25323E-4,.23E-6,0
ONEWEB-0669,2023-029AJ,2026-06-16T17:16:10.485984,13.20771453,.0002257,87.9192,274.5348,87.0473,273.0918,0,U,55828,999,16108,.80647E-4,.46E-6,0
ONEWEB-0670,2023-029AK,2026-06-17T01:26:29.011200,13.14502887,.0001675,87.8953,289.7662,89.6824,270.4497,0,U,55829,999,15941,-.51506E-3,-.178E-5,0
ONEWEB-0671,2023-029AL,2026-06-17T03:20:36.841056,13.19724288,.0001709,87.9169,304.9851,97.5064,262.6263,0,U,55830,999,15889,-.14385E-3,-.45E-6,0
ONEWEB-0672,2023-029AM,2026-06-17T00:25:15.068064,13.20772363,.0002255,87.9193,274.4686,99.0667,261.0722,0,U,55831,999,16112,.16123E-3,.79E-6,0
ONEWEB-0673,2023-029AN,2026-06-17T02:47:37.818816,13.19726441,.0001747,87.9177,304.9813,96.4389,263.6943,0,U,55832,999,15889,-.71641E-4,-.16E-6,0
ONEWEB-0674,2023-029AP,2026-06-16T21:01:35.078016,13.14503838,.0001681,87.8955,289.7797,87.9473,272.1849,0,U,55833,999,15937,.38072E-3,.154E-5,0
ONEWEB-0675,2023-029AQ,2026-06-16T21:41:43.649088,13.19724363,.0002104,87.9170,305.0334,104.2392,255.8974,0,U,55834,999,15888,.12474E-5,.13E-6,0
ONEWEB-0720,2023-029AR,2026-06-17T02:57:52.553088,13.19724168,.0001634,87.9167,304.9898,105.1417,254.9896,0,U,55835,999,15883,-.10468E-3,-.29E-6,0
