ONEWEB-0642             
1 55806U 23029L   26168.09825981 -.00000089  00000+0 -25413-3 0  9991
2 55806  87.9170 304.9946 0001594 125.6288 234.4993 13.19723415158895
ONEWEB-0643             
1 55807U 23029M   26168.06798824 -.00000074  00000+0 -23527-3 0  9992
2 55807  87.8954 289.7535 0001905 121.7400 238.3915 13.14503257159374
ONEWEB-0644             
1 55808U 23029N   26167.94188047  .00000069  00000+0  14112-3 0  9991
2 55808  87.9167 305.0271 0001726 109.4052 250.7267 13.19724428158870
ONEWEB-0645             
1 55809U 23029P   26168.11562561  .00000057  00000+0  10922-3 0  9991
2 55809  87.9167 304.9894 0001412 101.1426 258.9865 13.19724132158894
ONEWEB-0646             
1 55810U 23029Q   26168.13301045 -.00000014  00000+0 -66150-4 0  9993
2 55810  87.9168 304.9862 0001757 108.2274 251.9050 13.19725005158881
ONEWEB-0648             
1 55811U 23029R   26167.88402095 -.00000010  00000+0 -60700-4 0  9993
2 55811  87.8968 289.7638 0001100 120.1707 239.9532 13.14500761159355
ONEWEB-0649             
1 55812U 23029S   26167.93082295 -.00000060  00000+0 -18256-3 0  9999
2 55812  87.9168 305.0240 0001611 101.9047 258.2267 13.19724825158892
ONEWEB-0650             
1 55813U 23029T   26168.07770602  .00000123  00000+0  27563-3 0  9991
2 55813  87.9168 304.9970 0001550 114.3988 245.7307 13.19725469158885
ONEWEB-0652             
1 55814U 23029U   26167.86498563  .00000235  00000+0  59984-3 0  9997
2 55814  87.8962 289.7749 0002034  98.8060 261.3301 13.14504768159326
ONEWEB-0653             
1 55815U 23029V   26168.07749134  .00000064  00000+0  13728-3 0  9991
2 55815  87.8962 289.7304 0001890  97.9849 262.1495 13.14503207159384
ONEWEB-0654             
1 55816U 23029W   26168.07273352 -.00000078  00000+0 -24522-3 0  9997
2 55816  87.8963 289.7277 0002127  92.2858 267.8515 13.14503914159400
ONEWEB-0656             
1 55817U 23029X   26168.05289213  .00000062  00000+0  12021-3 0  9991
2 55817  87.9198 274.4564 0002291  92.2233 267.9163 13.20773429161131
ONEWEB-0657             
1 55818U 23029Y   26168.07298811  .00000018  00000+0  12747-4 0  9995
2 55818  87.9169 304.9969 0002544 102.3733 257.7684 13.19724857158890
ONEWEB-0658             
1 55819U 23029Z   26167.91661411 -.00000024  00000+0 -93139-4 0  9991
2 55819  87.9179 305.0036 0001689 111.0158 249.1156 13.19724605158885
ONEWEB-0660             
1 55820U 23029AA  26168.05053360 -.00000152  00000+0 -44529-3 0  9997
2 55820  87.8974 289.7250 0001565  98.0219 262.1088 13.14503270159383
ONEWEB-0661             
1 55821U 23029AB  26167.85707995  .00000158  00000+0  39144-3 0  9996
2 55821  87.8955 289.8085 0001637  94.4726 265.6591 13.14503061159344
ONEWEB-0662             
1 55822U 23029AC  26167.89196228 -.00000122  00000+0 -36353-3 0  9994
2 55822  87.8954 289.8076 0001583  98.8386 261.2923 13.14502143159390
ONEWEB-0663             
1 55823U 23029AD  26168.16235322  .00000143  00000+0  31907-3 0  9996
2 55823  87.9200 274.5061 0001558 107.6478 252.4826 13.20869409161142
ONEWEB-0664             
1 55824U 23029AE  26167.73639889 -.00000064  00000+0 -18967-3 0  9990
2 55824  87.9184 274.5723 0001776  86.6834 273.4502 13.20770618161083
ONEWEB-0665             
1 55825U 23029AF  26167.85390757  .00000131  00000+0  31907-3 0  9994
2 55825  87.8954 289.7900 0001541 102.3412 257.7890 13.14503378159364
ONEWEB-0666             
1 55826U 23029AG  26167.72966566  .00000035  00000+0  53085-4 0  9993
2 55826  87.9183 274.5635 0002673 104.9495 255.1935 13.20771003161097
ONEWEB-0667             
1 55827U 23029AH  26167.72462036  .00000023  00000+0  25323-4 0  9998
2 55827  87.9200 274.5225 0001809  98.2628 261.8711 13.20771625161081
ONEWEB-0669             
1 55828U 23029AJ  26167.71956581  .00000046  00000+0  80647-4 0  9996
2 55828  87.9192 274.5348 0002257  87.0473 273.0918 13.20771453161083
ONEWEB-0670             
1 55829U 23029AK  26168.06005800 -.00000178  00000+0 -51506-3 0  9994
2 55829  87.8953 289.7662 0001675  89.6824 270.4497 13.14502887159419
ONEWEB-0671             
1 55830U 23029AL  26168.13931529 -.00000045  00000+0 -14385-3 0  9997
2 55830  87.9169 304.9851 0001709  97.5064 262.6263 13.19724288158894
ONEWEB-0672             
1 55831U 23029AM  26168.01753551  .00000079  00000+0  16123-3 0  9999
2 55831  87.9193 274.4686 0002255  99.0667 261.0722 13.20772363161124
ONEWEB-0673             
1 55832U 23029AN  26168.11640994 -.00000016  00000+0 -71641-4 0  9997
2 55832  87.9177 304.9813 0001747  96.4389 263.6943 13.19726441158892
ONEWEB-0674             
1 55833U 23029AP  26167.87610044  .00000154  00000+0  38072-3 0  9994
2 55833  87.8955 289.7797 0001681  87.9473 272.1849 13.14503838159375
ONEWEB-0675             
1 55834U 23029AQ  26167.90397742  .00000013  00000+0  12474-5 0  9990
2 55834  87.9170 305.0334 0002104 104.2392 255.8974 13.19724363158884
ONEWEB-0720             
1 55835U 23029AR  26168.12352492 -.00000029  00000+0 -10468-3 0  9997
2 55835  87.9167 304.9898 0001634 105.1417 254.9896 13.19724168158830
